QIANFAN-89              
1 63175U 25046S   25295.54989851  .00000170  00000+0  24413-3 0  9995
2 63175  88.9783 325.3386 0014436 273.6238  86.3262 13.50972325 40497
QIANFAN-90              
1 63176U 25046T   25295.50456219  .00000140  00000+0  19766-3 0  9991
2 63176  88.9783 325.3157 0011372 271.6022  88.3827 13.50973764 40508
